start=new Date('2023-04-09T00:00:00.000Z').valueOf();
sats=[{"OBJECT_ID":"2021-027AP","OBJECT_TYPE":"PAYLOAD","REF_FRAME":"TEME","ARG_OF_PERICENTER":"65.7655","CENTER_NAME":"EARTH","REV_AT_EPOCH":"11136","COUNTRY_CODE":"US","MEAN_MOTION_DOT":"0.00004637","DECAY_DATE":null,"PERIAPSIS":"546.663","MEAN_MOTION_DDOT":"0.0000000000000","TLE_LINE1":"1 48129U 21027AP  23098.80458329  .00004637  00000-0  33007-3 0  9993","MEAN_MOTION":"15.06389446","TIME_SYSTEM":"UTC","EPOCH":"2023-04-08T19:18:35.996256","GP_ID":"229737075","ECCENTRICITY":"0.00008420","RCS_SIZE":"LARGE","OBJECT_NAME":"STARLINK-2471","LAUNCH_DATE":"2021-04-07","EPHEMERIS_TYPE":"0","PERIOD":"95.593","SITE":"AFETR","FILE":"3883649","CLASSIFICATION_TYPE":"U","SEMIMAJOR_AXIS":"6925.381","INCLINATION":"53.0531","NORAD_CAT_ID":"48129","MEAN_ELEMENT_THEORY":"SGP4","TLE_LINE2":"2 48129  53.0531 276.5601 0000842  65.7655 294.3422 15.06389446111362","MEAN_ANOMALY":"294.3422","APOAPSIS":"547.829","BSTAR":"0.00033007000000","ELEMENT_SET_NO":"999","RA_OF_ASC_NODE":"276.5601"},{"NORAD_CAT_ID":"48130","MEAN_ELEMENT_THEORY":"SGP4","FILE":"3883636","CLASSIFICATION_TYPE":"U","SEMIMAJOR_AXIS":"6925.376","INCLINATION":"53.0534","ELEMENT_SET_NO":"999","BSTAR":"0.00009957700000","APOAPSIS":"547.788","RA_OF_ASC_NODE":"281.6043","TLE_LINE2":"2 48130  53.0534 281.6043 0000791  70.6852 289.4223 15.06391173111297","MEAN_ANOMALY":"289.4223","RCS_SIZE":"LARGE","GP_ID":"229736631","ECCENTRICITY":"0.00007910","EPOCH":"2023-04-08T19:03:17.768160","SITE":"AFETR","LAUNCH_DATE":"2021-04-07","OBJECT_NAME":"STARLINK-2472","PERIOD":"95.593","EPHEMERIS_TYPE":"0","MEAN_MOTION_DDOT":"0.0000000000000","PERIAPSIS":"546.693","TIME_SYSTEM":"UTC","MEAN_MOTION":"15.06391173","TLE_LINE1":"1 48130U 21027AQ  23098.79395565  .00001202  00000-0  99577-4 0  9995","REF_FRAME":"TEME","OBJECT_ID":"2021-027AQ","OBJECT_TYPE":"PAYLOAD","MEAN_MOTION_DOT":"0.00001202","DECAY_DATE":null,"ARG_OF_PERICENTER":"70.6852","REV_AT_EPOCH":"11129","COUNTRY_CODE":"US","CENTER_NAME":"EARTH"},{"RA_OF_ASC_NODE":"258.0082","APOAPSIS":"547.908","BSTAR":"0.00039656000000","ELEMENT_SET_NO":"999","MEAN_ANOMALY":"272.2402","TLE_LINE2":"2 48131  53.0539 258.0082 0000928  87.8694 272.2402 15.06383092111997","MEAN_ELEMENT_THEORY":"SGP4","NORAD_CAT_ID":"48131","SEMIMAJOR_AXIS":"6925.400","INCLINATION":"53.0539","CLASSIFICATION_TYPE":"U","FILE":"3883527","SITE":"AFETR","EPHEMERIS_TYPE":"0","PERIOD":"95.593","OBJECT_NAME":"STARLINK-2473","LAUNCH_DATE":"2021-04-07","GP_ID":"229729038","ECCENTRICITY":"0.00009280","RCS_SIZE":"LARGE","EPOCH":"2023-04-08T11:34:09.820704","MEAN_MOTION":"15.06383092","TIME_SYSTEM":"UTC","TLE_LINE1":"1 48131U 21027AR  23098.48205811  .00005628  00000-0  39656-3 0  9993","MEAN_MOTION_DDOT":"0.0000000000000","PERIAPSIS":"546.623","DECAY_DATE":null,"MEAN_MOTION_DOT":"0.00005628","CENTER_NAME":"EARTH","REV_AT_EPOCH":"11199","COUNTRY_CODE":"US","ARG_OF_PERICENTER":"87.8694","REF_FRAME":"TEME","OBJECT_ID":"2021-027AR","OBJECT_TYPE":"PAYLOAD"},{"INCLINATION":"53.0545","SEMIMAJOR_AXIS":"6925.298","CLASSIFICATION_TYPE":"U","FILE":"3883652","MEAN_ELEMENT_THEORY":"SGP4","NORAD_CAT_ID":"48132","MEAN_ANOMALY":"287.0612","TLE_LINE2":"2 48132  53.0545 276.6103 0001260  73.0515 287.0612 15.06416551111369","RA_OF_ASC_NODE":"276.6103","APOAPSIS":"548.035","BSTAR":"0.00066750000000","ELEMENT_SET_NO":"999","EPOCH":"2023-04-08T19:02:39.452352","ECCENTRICITY":"0.00012600","GP_ID":"229737333","RCS_SIZE":"LARGE","EPHEMERIS_TYPE":"0","PERIOD":"95.591","OBJECT_NAME":"STARLINK-2474","LAUNCH_DATE":"2021-04-07","SITE":"AFETR","PERIAPSIS":"546.290","MEAN_MOTION_DDOT":"0.0000000000000","TLE_LINE1":"1 48132U 21027AS  23098.79351218  .00009679  00000-0  66750-3 0  9996","MEAN_MOTION":"15.06416551","TIME_SYSTEM":"UTC","OBJECT_TYPE":"PAYLOAD","OBJECT_ID":"2021-027AS","REF_FRAME":"TEME","CENTER_NAME":"EARTH","REV_AT_EPOCH":"11136","COUNTRY_CODE":"US","ARG_OF_PERICENTER":"73.0515","DECAY_DATE":null,"MEAN_MOTION_DOT":"0.00009679"},{"INCLINATION":"53.0533","SEMIMAJOR_AXIS":"6925.396","FILE":"3883527","CLASSIFICATION_TYPE":"U","MEAN_ELEMENT_THEORY":"SGP4","NORAD_CAT_ID":"48133","MEAN_ANOMALY":"257.9900","TLE_LINE2":"2 48133  53.0533 279.3064 0002005 102.1314 257.9900 15.06384442111675","RA_OF_ASC_NODE":"279.3064","BSTAR":"0.00011294000000","ELEMENT_SET_NO":"999","APOAPSIS":"548.650","EPOCH":"2023-04-08T04:37:29.600544","RCS_SIZE":"LARGE","GP_ID":"229728037","ECCENTRICITY":"0.00020050","PERIOD":"95.593","EPHEMERIS_TYPE":"0","LAUNCH_DATE":"2021-04-07","OBJECT_NAME":"STARLINK-2475","SITE":"AFETR","PERIAPSIS":"545.873","MEAN_MOTION_DDOT":"0.0000000000000","TLE_LINE1":"1 48133U 21027AT  23098.19270371  .00001400  00000-0  11294-3 0  9998","TIME_SYSTEM":"UTC","MEAN_MOTION":"15.06384442","OBJECT_TYPE":"PAYLOAD","OBJECT_ID":"2021-027AT","REF_FRAME":"TEME","REV_AT_EPOCH":"11167","COUNTRY_CODE":"US","CENTER_NAME":"EARTH","ARG_OF_PERICENTER":"102.1314","DECAY_DATE":null,"MEAN_MOTION_DOT":"0.00001400"},{"ARG_OF_PERICENTER":"78.9861","CENTER_NAME":"EARTH","REV_AT_EPOCH":"11136","COUNTRY_CODE":"US","MEAN_MOTION_DOT":"0.00019476","DECAY_DATE":null,"OBJECT_ID":"2021-027AU","OBJECT_TYPE":"PAYLOAD","REF_FRAME":"TEME","TLE_LINE1":"1 48134U 21027AU  23098.77509664  .00019476  00000-0  13233-2 0  9999","MEAN_MOTION":"15.06386134","TIME_SYSTEM":"UTC","PERIAPSIS":"546.318","MEAN_MOTION_DDOT":"0.0000000000000","OBJECT_NAME":"STARLINK-2476","LAUNCH_DATE":"2021-04-07","EPHEMERIS_TYPE":"0","PERIOD":"95.593","SITE":"AFETR","EPOCH":"2023-04-08T18:36:08.349696","ECCENTRICITY":"0.00013540","GP_ID":"229737929","RCS_SIZE":"LARGE","TLE_LINE2":"2 48134  53.0537 276.6931 0001354  78.9861 281.1281 15.06386134111363","MEAN_ANOMALY":"281.1281","APOAPSIS":"548.194","BSTAR":"0.00132330000000","ELEMENT_SET_NO":"999","RA_OF_ASC_NODE":"276.6931","CLASSIFICATION_TYPE":"U","FILE":"3883661","INCLINATION":"53.0537","SEMIMAJOR_AXIS":"6925.391","NORAD_CAT_ID":"48134","MEAN_ELEMENT_THEORY":"SGP4"},{"RCS_SIZE":"LARGE","GP_ID":"229729538","ECCENTRICITY":"0.00011840","EPOCH":"2023-04-08T12:15:59.130720","SITE":"AFETR","OBJECT_NAME":"STARLINK-2478","LAUNCH_DATE":"2021-04-07","PERIOD":"95.592","EPHEMERIS_TYPE":"0","MEAN_ELEMENT_THEORY":"SGP4","NORAD_CAT_ID":"48135","CLASSIFICATION_TYPE":"U","FILE":"3883527","INCLINATION":"53.0518","SEMIMAJOR_AXIS":"6925.332","ELEMENT_SET_NO":"999","BSTAR":"0.00066213000000","APOAPSIS":"548.017","RA_OF_ASC_NODE":"283.0443","TLE_LINE2":"2 48135  53.0518 283.0443 0001184  72.4716 287.6402 15.06405241111640","MEAN_ANOMALY":"287.6402","REF_FRAME":"TEME","OBJECT_TYPE":"PAYLOAD","OBJECT_ID":"2021-027AV","MEAN_MOTION_DOT":"0.00009596","DECAY_DATE":null,"ARG_OF_PERICENTER":"72.4716","COUNTRY_CODE":"US","REV_AT_EPOCH":"11164","CENTER_NAME":"EARTH","MEAN_MOTION_DDOT":"0.0000000000000","PERIAPSIS":"546.378","TIME_SYSTEM":"UTC","MEAN_MOTION":"15.06405241","TLE_LINE1":"1 48135U 21027AV  23098.51110105  .00009596  00000-0  66213-3 0  9999"},{"EPOCH":"2023-04-08T17:36:23.266368","GP_ID":"229737444","ECCENTRICITY":"0.00011280","RCS_SIZE":"LARGE","OBJECT_NAME":"STARLINK-2479","LAUNCH_DATE":"2021-04-07","EPHEMERIS_TYPE":"0","PERIOD":"95.593","SITE":"AFETR","CLASSIFICATION_TYPE":"U","FILE":"3883663","SEMIMAJOR_AXIS":"6925.382","INCLINATION":"53.0535","MEAN_ELEMENT_THEORY":"SGP4","NORAD_CAT_ID":"48136","TLE_LINE2":"2 48136  53.0535 276.8706 0001128  88.8815 271.2303 15.06389110111354","MEAN_ANOMALY":"271.2303","APOAPSIS":"548.028","ELEMENT_SET_NO":"999","BSTAR":"0.00016149000000","RA_OF_ASC_NODE":"276.8706","OBJECT_TYPE":"PAYLOAD","OBJECT_ID":"2021-027AW","REF_FRAME":"TEME","ARG_OF_PERICENTER":"88.8815","CENTER_NAME":"EARTH","COUNTRY_CODE":"US","REV_AT_EPOCH":"11135","MEAN_MOTION_DOT":"0.00002124","DECAY_DATE":null,"PERIAPSIS":"546.466","MEAN_MOTION_DDOT":"0.0000000000000","TLE_LINE1":"1 48136U 21027AW  23098.73360262  .00002124  00000-0  16149-3 0  9998","MEAN_MOTION":"15.06389110","TIME_SYSTEM":"UTC"},{"MEAN_MOTION_DDOT":"0.0000000000000","PERIAPSIS":"546.306","MEAN_MOTION":"15.06380040","TIME_SYSTEM":"UTC","TLE_LINE1":"1 48137U 21027AX  23098.49311608 -.00001798  00000-0 -10190-3 0  9990","REF_FRAME":"TEME","OBJECT_TYPE":"PAYLOAD","OBJECT_ID":"2021-027AX","MEAN_MOTION_DOT":"-0.00001798","DECAY_DATE":null,"ARG_OF_PERICENTER":"82.2055","CENTER_NAME":"EARTH","REV_AT_EPOCH":"11199","COUNTRY_CODE":"US","MEAN_ELEMENT_THEORY":"SGP4","NORAD_CAT_ID":"48137","FILE":"3883527","CLASSIFICATION_TYPE":"U","INCLINATION":"53.0567","SEMIMAJOR_AXIS":"6925.410","APOAPSIS":"548.244","ELEMENT_SET_NO":"999","BSTAR":"-0.00010190000000","RA_OF_ASC_NODE":"257.9289","TLE_LINE2":"2 48137  53.0567 257.9289 0001399  82.2055 277.9093 15.06380040111992","MEAN_ANOMALY":"277.9093","GP_ID":"229728537","ECCENTRICITY":"0.00013990","RCS_SIZE":"LARGE","EPOCH":"2023-04-08T11:50:05.229312","SITE":"AFETR","LAUNCH_DATE":"2021-04-07","OBJECT_NAME":"STARLINK-2480","EPHEMERIS_TYPE":"0","PERIOD":"95.593"},{"LAUNCH_DATE":"2021-04-07","OBJECT_NAME":"STARLINK-2481","EPHEMERIS_TYPE":"0","PERIOD":"95.592","SITE":"AFETR","EPOCH":"2023-04-08T10:54:20.488320","GP_ID":"229728787","ECCENTRICITY":"0.00014640","RCS_SIZE":"LARGE","TLE_LINE2":"2 48138  53.0524 278.1317 0001464  60.5615 299.5520 15.06408304111716","MEAN_ANOMALY":"299.5520","APOAPSIS":"548.202","ELEMENT_SET_NO":"999","BSTAR":"0.00043792000000","RA_OF_ASC_NODE":"278.1317","FILE":"3883527","CLASSIFICATION_TYPE":"U","SEMIMAJOR_AXIS":"6925.323","INCLINATION":"53.0524","MEAN_ELEMENT_THEORY":"SGP4","NORAD_CAT_ID":"48138","ARG_OF_PERICENTER":"60.5615","CENTER_NAME":"EARTH","COUNTRY_CODE":"US","REV_AT_EPOCH":"11171","MEAN_MOTION_DOT":"0.00006249","DECAY_DATE":null,"OBJECT_TYPE":"PAYLOAD","OBJECT_ID":"2021-027AY","REF_FRAME":"TEME","TLE_LINE1":"1 48138U 21027AY  23098.45440380  .00006249  00000-0  43792-3 0  9995","MEAN_MOTION":"15.06408304","TIME_SYSTEM":"UTC","PERIAPSIS":"546.174","MEAN_MOTION_DDOT":"0.0000000000000"}];
